{
  "type": "FeatureCollection",
  "features": [
    {
      "type": "Feature",
      "properties": {
        "norad_id": 32212,
        "name": "FENGYUN 1C DEB",
        "group": "fengyun-1c-debris",
        "lat": -32.30132220286109,
        "lon": 100.69463235637136,
        "alt_km": 749.049457270401,
        "timestamp": "2025-12-22T16:55:17.749610+00:00",
        "meta_object_name": "FENGYUN 1C DEB",
        "meta_object_id": "1999-025CVJ",
        "meta_epoch": "2025-12-17T05:30:07.163712",
        "meta_mean_motion": 14.40337107,
        "meta_eccentricity": 0.01377953,
        "meta_inclination": 99.5731,
        "meta_ra_of_asc_node": 88.4501,
        "meta_arg_of_pericenter": 65.5611,
        "meta_mean_anomaly": 325.7716,
        "meta_ephemeris_type": 0,
        "meta_classification_type": "U",
        "meta_norad_cat_id": 32212,
        "meta_element_set_no": 999,
        "meta_rev_at_epoch": 96126,
        "meta_bstar": 0.00030524144,
        "meta_mean_motion_dot": 1.024e-05,
        "meta_mean_motion_ddot": 0,
        "tle_line1": "1 32212U 99025CVJ 25351.22924958  .00001024  00000+0  30524-3 0  9995",
        "tle_line2": "2 32212  99.5731  88.4501 0137795  65.5611 325.7716 14.40337107961263"
      },
      "geometry": {
        "type": "Point",
        "coordinates": [
          100.69463235637136,
          -32.30132220286109
        ]
      }
    },
    {
      "type": "Feature",
      "properties": {
        "norad_id": 32214,
        "name": "FENGYUN 1C DEB",
        "group": "fengyun-1c-debris",
        "lat": 1.4432438648472843,
        "lon": -157.7128930173579,
        "alt_km": 1062.456312134882,
        "timestamp": "2025-12-22T16:55:17.749621+00:00",
        "meta_object_name": "FENGYUN 1C DEB",
        "meta_object_id": "1999-025CVL",
        "meta_epoch": "2025-12-21T13:11:06.590112",
        "meta_mean_motion": 13.90626456,
        "meta_eccentricity": 0.0188039,
        "meta_inclination": 99.042,
        "meta_ra_of_asc_node": 20.9323,
        "meta_arg_of_pericenter": 15.143,
        "meta_mean_anomaly": 140.2339,
        "meta_ephemeris_type": 0,
        "meta_classification_type": "U",
        "meta_norad_cat_id": 32214,
        "meta_element_set_no": 999,
        "meta_rev_at_epoch": 62544,
        "meta_bstar": 0.0033036,
        "meta_mean_motion_dot": 4.71e-05,
        "meta_mean_motion_ddot": 0,
        "tle_line1": "1 32214U 99025CVL 25355.54938183  .00004710  00000+0  33036-2 0  9996",
        "tle_line2": "2 32214  99.0420  20.9323 0188039  15.1430 140.2339 13.90626456625445"
      },
      "geometry": {
        "type": "Point",
        "coordinates": [
          -157.7128930173579,
          1.4432438648472843
        ]
      }
    },
    {
      "type": "Feature",
      "properties": {
        "norad_id": 32218,
        "name": "FENGYUN 1C DEB",
        "group": "fengyun-1c-debris",
        "lat": -34.33249305843689,
        "lon": 5.033903290482277,
        "alt_km": 758.4184673485497,
        "timestamp": "2025-12-22T16:55:17.749631+00:00",
        "meta_object_name": "FENGYUN 1C DEB",
        "meta_object_id": "1999-025CVQ",
        "meta_epoch": "2025-12-20T19:28:12.294624",
        "meta_mean_motion": 14.55536952,
        "meta_eccentricity": 0.00630558,
        "meta_inclination": 98.8112,
        "meta_ra_of_asc_node": 189.118,
        "meta_arg_of_pericenter": 43.2318,
        "meta_mean_anomaly": 333.7092,
        "meta_ephemeris_type": 0,
        "meta_classification_type": "U",
        "meta_norad_cat_id": 32218,
        "meta_element_set_no": 999,
        "meta_rev_at_epoch": 96350,
        "meta_bstar": 0.00051880203,
        "meta_mean_motion_dot": 2.268e-05,
        "meta_mean_motion_ddot": 0,
        "tle_line1": "1 32218U 99025CVQ 25354.81125341  .00002268  00000+0  51880-3 0  9997",
        "tle_line2": "2 32218  98.8112 189.1180 0063055  43.2318 333.7092 14.55536952963500"
      },
      "geometry": {
        "type": "Point",
        "coordinates": [
          5.033903290482277,
          -34.33249305843689
        ]
      }
    },
    {
      "type": "Feature",
      "properties": {
        "norad_id": 32221,
        "name": "FENGYUN 1C DEB",
        "group": "fengyun-1c-debris",
        "lat": -38.590582692319835,
        "lon": -39.970585219618336,
        "alt_km": 727.1421337924357,
        "timestamp": "2025-12-22T16:55:17.749641+00:00",
        "meta_object_name": "FENGYUN 1C DEB",
        "meta_object_id": "1999-025CVT",
        "meta_epoch": "2025-12-21T08:39:23.372352",
        "meta_mean_motion": 14.5872858,
        "meta_eccentricity": 0.01470508,
        "meta_inclination": 98.5661,
        "meta_ra_of_asc_node": 145.5519,
        "meta_arg_of_pericenter": 119.3127,
        "meta_mean_anomaly": 242.2856,
        "meta_ephemeris_type": 0,
        "meta_classification_type": "U",
        "meta_norad_cat_id": 32221,
        "meta_element_set_no": 999,
        "meta_rev_at_epoch": 97323,
        "meta_bstar": 0.00025684348,
        "meta_mean_motion_dot": 1.336e-05,
        "meta_mean_motion_ddot": 0,
        "tle_line1": "1 32221U 99025CVT 25355.36068718  .00001336  00000+0  25684-3 0  9994",
        "tle_line2": "2 32221  98.5661 145.5519 0147050 119.3127 242.2856 14.58728580973239"
      },
      "geometry": {
        "type": "Point",
        "coordinates": [
          -39.970585219618336,
          -38.590582692319835
        ]
      }
    },
    {
      "type": "Feature",
      "properties": {
        "norad_id": 32223,
        "name": "FENGYUN 1C DEB",
        "group": "fengyun-1c-debris",
        "lat": -11.408198432348302,
        "lon": -106.02881659097673,
        "alt_km": 830.5066347790143,
        "timestamp": "2025-12-22T16:55:17.749652+00:00",
        "meta_object_name": "FENGYUN 1C DEB",
        "meta_object_id": "1999-025CVV",
        "meta_epoch": "2025-12-13T23:18:00.552672",
        "meta_mean_motion": 14.20905079,
        "meta_eccentricity": 0.00468432,
        "meta_inclination": 98.839,
        "meta_ra_of_asc_node": 67.0353,
        "meta_arg_of_pericenter": 313.8611,
        "meta_mean_anomaly": 224.3875,
        "meta_ephemeris_type": 0,
        "meta_classification_type": "U",
        "meta_norad_cat_id": 32223,
        "meta_element_set_no": 999,
        "meta_rev_at_epoch": 64241,
        "meta_bstar": 0.0016444924,
        "meta_mean_motion_dot": 3.554e-05,
        "meta_mean_motion_ddot": 0,
        "tle_line1": "1 32223U 99025CVV 25347.97083973  .00003554  00000+0  16445-2 0  9992",
        "tle_line2": "2 32223  98.8390  67.0353 0046843 313.8611 224.3875 14.20905079642418"
      },
      "geometry": {
        "type": "Point",
        "coordinates": [
          -106.02881659097673,
          -11.408198432348302
        ]
      }
    },
    {
      "type": "Feature",
      "properties": {
        "norad_id": 32224,
        "name": "FENGYUN 1C DEB",
        "group": "fengyun-1c-debris",
        "lat": 52.39834107153129,
        "lon": -63.75555521242773,
        "alt_km": 720.2847441609792,
        "timestamp": "2025-12-22T16:55:17.749663+00:00",
        "meta_object_name": "FENGYUN 1C DEB",
        "meta_object_id": "1999-025CVW",
        "meta_epoch": "2025-12-22T03:16:52.028256",
        "meta_mean_motion": 14.34039895,
        "meta_eccentricity": 0.00769239,
        "meta_inclination": 98.9856,
        "meta_ra_of_asc_node": 307.5101,
        "meta_arg_of_pericenter": 39.3734,
        "meta_mean_anomaly": 321.3006,
        "meta_ephemeris_type": 0,
        "meta_classification_type": "U",
        "meta_norad_cat_id": 32224,
        "meta_element_set_no": 999,
        "meta_rev_at_epoch": 95858,
        "meta_bstar": 0.00031769868,
        "meta_mean_motion_dot": 8.7e-06,
        "meta_mean_motion_ddot": 0,
        "tle_line1": "1 32224U 99025CVW 25356.13671329  .00000870  00000+0  31770-3 0  9996",
        "tle_line2": "2 32224  98.9856 307.5101 0076923  39.3734 321.3006 14.34039895958589"
      },
      "geometry": {
        "type": "Point",
        "coordinates": [
          -63.75555521242773,
          52.39834107153129
        ]
      }
    },
    {
      "type": "Feature",
      "properties": {
        "norad_id": 32225,
        "name": "FENGYUN 1C DEB",
        "group": "fengyun-1c-debris",
        "lat": -22.567218766039282,
        "lon": 49.33696480624463,
        "alt_km": 902.6881623148729,
        "timestamp": "2025-12-22T16:55:17.749674+00:00",
        "meta_object_name": "FENGYUN 1C DEB",
        "meta_object_id": "1999-025CVX",
        "meta_epoch": "2025-12-18T09:22:02.510112",
        "meta_mean_motion": 14.13050119,
        "meta_eccentricity": 0.00719651,
        "meta_inclination": 99.0915,
        "meta_ra_of_asc_node": 41.1408,
        "meta_arg_of_pericenter": 190.6397,
        "meta_mean_anomaly": 169.3256,
        "meta_ephemeris_type": 0,
        "meta_classification_type": "U",
        "meta_norad_cat_id": 32225,
        "meta_element_set_no": 999,
        "meta_rev_at_epoch": 68196,
        "meta_bstar": 0.00018827687,
        "meta_mean_motion_dot": 3.14e-06,
        "meta_mean_motion_ddot": 0,
        "tle_line1": "1 32225U 99025CVX 25352.39030683  .00000314  00000+0  18828-3 0  9995",
        "tle_line2": "2 32225  99.0915  41.1408 0071965 190.6397 169.3256 14.13050119681967"
      },
      "geometry": {
        "type": "Point",
        "coordinates": [
          49.33696480624463,
          -22.567218766039282
        ]
      }
    }
  ]
}